ONEWEB-0401             
1 50481U 21132N   23267.79301066  .00000034  00000+0  52502-4 0  9993
2 50481  87.9296 173.6067 0001923  85.2335 274.9016 13.18684765 90290
ONEWEB-0402             
1 50482U 21132P   23267.91103523  .00000026  00000+0  33603-4 0  9998
2 50482  87.9223 173.6034 0002325  82.5932 277.5464 13.18684208 91610
ONEWEB-0403             
1 50483U 21132Q   23267.78248052  .00000021  00000+0  20201-4 0  9996
2 50483  87.9277 173.6141 0001667  84.6842 275.4481 13.18687352 90270
ONEWEB-0404             
1 50484U 21132R   23267.81930018 -.00000551  00000+0 -15909-2 0  9998
2 50484  87.8959 218.9770 0001339  94.0099 266.1182 13.11412913 85106
ONEWEB-0405             
1 50485U 21132S   23267.82267144  .00000111  00000+0  24710-3 0  9994
2 50485  87.9299 173.6009 0002043  88.3081 271.8286 13.19201584 91964
ONEWEB-0406             
1 50486U 21132T   23267.78669778  .00007772  00000+0  19674-1 0  9990
2 50486  87.9294 173.6080 0001222 104.8807 255.2460 13.18648385 90307
ONEWEB-0407             
1 50487U 21132U   23267.78035938  .00000056  00000+0  10885-3 0  9991
2 50487  87.9296 173.6172 0001794  79.4894 280.6440 13.18688251 90248
ONEWEB-0409             
1 50488U 21132V   23267.89345614 -.00000509  00000+0 -14720-2 0  9995
2 50488  87.8958 218.9779 0001184  79.7396 280.3866 13.11414787 85003
